[
    {
        "Altitude(m)": 624792.7488413722,
        "Argument of Periapsis(deg)": 0.0,
        "Eccentricity": 0.0,
        "Inclination(deg)": 60.0,
        "Latitude(deg)": -59.14701714416693,
        "Longitude(deg)": 49.026527951569115,
        "Mean Anomaly(deg)": -98.18179999999998,
        "RAAN(deg)": 255.0,
        "Satellite Name": "Test1 1138",
        "Satellite Number": 1138,
        "Semi-Major Axis(m)": 6980739.136638005,
        "Time(s)": 0
    },
    {
        "Altitude(m)": 624842.1404554565,
        "Argument of Periapsis(deg)": 0.00010418945913296404,
        "Eccentricity": 0.0,
        "Inclination(deg)": 60.0,
        "Latitude(deg)": -59.28909927057349,
        "Longitude(deg)": 50.15603037278846,
        "Mean Anomaly(deg)": -97.56169385453813,
        "RAAN(deg)": 254.99957995086027,
        "Satellite Name": "Test1 1138",
        "Satellite Number": 1138,
        "Semi-Major Axis(m)": 6980739.136638005,
        "Time(s)": 10
    }
]